[{"OBJECT_NAME":"PROTOMETHEE","OBJECT_ID":"2023-174BT","EPOCH":"2026-03-09T23:28:08.029344","MEAN_MOTION":15.30202663,"ECCENTRICITY":0.00088339,"INCLINATION":97.3826,"RA_OF_ASC_NODE":147.9552,"ARG_OF_PERICENTER":148.5993,"MEAN_ANOMALY":211.5776,"EPHEMERIS_TYPE":0,"CLASSIFICATION_TYPE":"U","NORAD_CAT_ID":58321,"ELEMENT_SET_NO":999,"REV_AT_EPOCH":12979,"BSTAR":0.00015715731,"MEAN_MOTION_DOT":4.52e-5,"MEAN_MOTION_DDOT":0},{"OBJECT_NAME":"STARLINK-36129","OBJECT_ID":"2025-281AC","EPOCH":"2026-03-09T03:43:32.636640","MEAN_MOTION":15.27575623,"ECCENTRICITY":0.00016754,"INCLINATION":43.0031,"RA_OF_ASC_NODE":346.5022,"ARG_OF_PERICENTER":285.5594,"MEAN_ANOMALY":74.5073,"EPHEMERIS_TYPE":0,"CLASSIFICATION_TYPE":"U","NORAD_CAT_ID":66874,"ELEMENT_SET_NO":999,"REV_AT_EPOCH":1609,"BSTAR":0.0012840742,"MEAN_MOTION_DOT":0.00035237,"MEAN_MOTION_DDOT":0}]
